{
  "type": "FeatureCollection",
  "features": [
    {
      "type": "Feature",
      "properties": {
        "norad_id": 66954,
        "name": "HULIANWANG DIGUI-115",
        "group": "last-30-days",
        "lat": -52.562266040610055,
        "lon": 166.9374468929663,
        "alt_km": 1015.1106283617028,
        "timestamp": "2025-12-23T05:02:10.751830+00:00",
        "meta_object_name": "HULIANWANG DIGUI-115",
        "meta_object_id": "2025-287B",
        "meta_epoch": "2025-12-20T14:23:56.755680",
        "meta_mean_motion": 13.66603826,
        "meta_eccentricity": 0.00094984,
        "meta_inclination": 86.4975,
        "meta_ra_of_asc_node": 343.2967,
        "meta_arg_of_pericenter": 182.0064,
        "meta_mean_anomaly": 178.1058,
        "meta_ephemeris_type": 0,
        "meta_classification_type": "U",
        "meta_norad_cat_id": 66954,
        "meta_element_set_no": 999,
        "meta_rev_at_epoch": 160,
        "meta_bstar": -9.79328e-07,
        "meta_mean_motion_dot": 1.6e-07,
        "meta_mean_motion_ddot": 0,
        "tle_line1": "1 66954U 25287B   25354.59996245  .00000016  00000+0 -97933-6 0  9996",
        "tle_line2": "2 66954  86.4975 343.2967 0009498 182.0064 178.1058 13.66603826  1604"
      },
      "geometry": {
        "type": "Point",
        "coordinates": [
          166.9374468929663,
          -52.562266040610055
        ]
      }
    },
    {
      "type": "Feature",
      "properties": {
        "norad_id": 66955,
        "name": "HULIANWANG DIGUI-116",
        "group": "last-30-days",
        "lat": -62.63257145685229,
        "lon": 169.1381187407016,
        "alt_km": 1016.0200708002458,
        "timestamp": "2025-12-23T05:02:10.751842+00:00",
        "meta_object_name": "HULIANWANG DIGUI-116",
        "meta_object_id": "2025-287C",
        "meta_epoch": "2025-12-20T16:07:29.631072",
        "meta_mean_motion": 13.67009251,
        "meta_eccentricity": 0.00086607,
        "meta_inclination": 86.4918,
        "meta_ra_of_asc_node": 343.2556,
        "meta_arg_of_pericenter": 174.268,
        "meta_mean_anomaly": 185.8579,
        "meta_ephemeris_type": 0,
        "meta_classification_type": "U",
        "meta_norad_cat_id": 66955,
        "meta_element_set_no": 999,
        "meta_rev_at_epoch": 161,
        "meta_bstar": 0.00012368885,
        "meta_mean_motion_dot": 1.2e-06,
        "meta_mean_motion_ddot": 0,
        "tle_line1": "1 66955U 25287C   25354.67187073  .00000120  00000+0  12369-3 0  9999",
        "tle_line2": "2 66955  86.4918 343.2556 0008660 174.2680 185.8579 13.67009251  1610"
      },
      "geometry": {
        "type": "Point",
        "coordinates": [
          169.1381187407016,
          -62.63257145685229
        ]
      }
    },
    {
      "type": "Feature",
      "properties": {
        "norad_id": 66956,
        "name": "HULIANWANG DIGUI-117",
        "group": "last-30-days",
        "lat": -78.35373322298071,
        "lon": 179.63119811638992,
        "alt_km": 1015.598338101292,
        "timestamp": "2025-12-23T05:02:10.751852+00:00",
        "meta_object_name": "HULIANWANG DIGUI-117",
        "meta_object_id": "2025-287D",
        "meta_epoch": "2025-12-18T14:55:12.079776",
        "meta_mean_motion": 13.67770338,
        "meta_eccentricity": 0.00076767,
        "meta_inclination": 86.4971,
        "meta_ra_of_asc_node": 344.0126,
        "meta_arg_of_pericenter": 176.3616,
        "meta_mean_anomaly": 183.76,
        "meta_ephemeris_type": 0,
        "meta_classification_type": "U",
        "meta_norad_cat_id": 66956,
        "meta_element_set_no": 999,
        "meta_rev_at_epoch": 133,
        "meta_bstar": 1.0922436e-05,
        "meta_mean_motion_dot": 2.6e-07,
        "meta_mean_motion_ddot": 0,
        "tle_line1": "1 66956U 25287D   25352.62166759  .00000026  00000+0  10922-4 0  9990",
        "tle_line2": "2 66956  86.4971 344.0126 0007676 176.3616 183.7600 13.67770338  1332"
      },
      "geometry": {
        "type": "Point",
        "coordinates": [
          179.63119811638992,
          -78.35373322298071
        ]
      }
    },
    {
      "type": "Feature",
      "properties": {
        "norad_id": 66957,
        "name": "HULIANWANG DIGUI-118",
        "group": "last-30-days",
        "lat": -80.60530648394739,
        "lon": -175.91694043455598,
        "alt_km": 1016.4358155062719,
        "timestamp": "2025-12-23T05:02:10.751864+00:00",
        "meta_object_name": "HULIANWANG DIGUI-118",
        "meta_object_id": "2025-287E",
        "meta_epoch": "2025-12-21T00:50:13.849728",
        "meta_mean_motion": 13.6751011,
        "meta_eccentricity": 0.00054729,
        "meta_inclination": 86.4946,
        "meta_ra_of_asc_node": 343.1304,
        "meta_arg_of_pericenter": 170.9065,
        "meta_mean_anomaly": 189.2194,
        "meta_ephemeris_type": 0,
        "meta_classification_type": "U",
        "meta_norad_cat_id": 66957,
        "meta_element_set_no": 999,
        "meta_rev_at_epoch": 166,
        "meta_bstar": 0.00013223305,
        "meta_mean_motion_dot": 1.28e-06,
        "meta_mean_motion_ddot": 0,
        "tle_line1": "1 66957U 25287E   25355.03488252  .00000128  00000+0  13223-3 0  9993",
        "tle_line2": "2 66957  86.4946 343.1304 0005472 170.9065 189.2194 13.67510110  1668"
      },
      "geometry": {
        "type": "Point",
        "coordinates": [
          -175.91694043455598,
          -80.60530648394739
        ]
      }
    },
    {
      "type": "Feature",
      "properties": {
        "norad_id": 66958,
        "name": "CZ-6A R/B",
        "group": "last-30-days",
        "lat": 6.9513392341482465,
        "lon": 161.69355153019643,
        "alt_km": 929.282203288798,
        "timestamp": "2025-12-23T05:02:10.751875+00:00",
        "meta_object_name": "CZ-6A R/B",
        "meta_object_id": "2025-287F",
        "meta_epoch": "2025-12-22T19:36:48.157056",
        "meta_mean_motion": 13.94921346,
        "meta_eccentricity": 0.0107196,
        "meta_inclination": 86.5062,
        "meta_ra_of_asc_node": 342.2695,
        "meta_arg_of_pericenter": 71.8586,
        "meta_mean_anomaly": 289.4225,
        "meta_ephemeris_type": 0,
        "meta_classification_type": "U",
        "meta_norad_cat_id": 66958,
        "meta_element_set_no": 999,
        "meta_rev_at_epoch": 194,
        "meta_bstar": 4.8160327e-05,
        "meta_mean_motion_dot": 8.7e-07,
        "meta_mean_motion_ddot": 0,
        "tle_line1": "1 66958U 25287F   25356.81722404  .00000087  00000+0  48160-4 0  9994",
        "tle_line2": "2 66958  86.5062 342.2695 0107196  71.8586 289.4225 13.94921346  1941"
      },
      "geometry": {
        "type": "Point",
        "coordinates": [
          161.69355153019643,
          6.9513392341482465
        ]
      }
    },
    {
      "type": "Feature",
      "properties": {
        "norad_id": 66959,
        "name": "STARLINK-35887",
        "group": "last-30-days",
        "lat": -42.83077094695929,
        "lon": 7.317376063257598,
        "alt_km": 349.1607655887956,
        "timestamp": "2025-12-23T05:02:10.751885+00:00",
        "meta_object_name": "STARLINK-35887",
        "meta_object_id": "2025-288A",
        "meta_epoch": "2025-12-22T22:00:03.000096",
        "meta_mean_motion": 15.75370481,
        "meta_eccentricity": 0.00017347,
        "meta_inclination": 43.0009,
        "meta_ra_of_asc_node": 104.9472,
        "meta_arg_of_pericenter": 284.8581,
        "meta_mean_anomaly": 116.9293,
        "meta_ephemeris_type": 0,
        "meta_classification_type": "U",
        "meta_norad_cat_id": 66959,
        "meta_element_set_no": 999,
        "meta_rev_at_epoch": 346,
        "meta_bstar": -0.013403562,
        "meta_mean_motion_dot": -0.01828028,
        "meta_mean_motion_ddot": 0,
        "tle_line1": "1 66959U 25288A   25356.91670139 -.01828028  00000+0 -13404-1 0  9990",
        "tle_line2": "2 66959  43.0009 104.9472 0001734 284.8581 116.9293 15.75370481  3466"
      },
      "geometry": {
        "type": "Point",
        "coordinates": [
          7.317376063257598,
          -42.83077094695929
        ]
      }
    },
    {
      "type": "Feature",
      "properties": {
        "norad_id": 66960,
        "name": "STARLINK-35879",
        "group": "last-30-days",
        "lat": -42.933941603981616,
        "lon": 9.914331594140215,
        "alt_km": 349.2325943638816,
        "timestamp": "2025-12-23T05:02:10.751895+00:00",
        "meta_object_name": "STARLINK-35879",
        "meta_object_id": "2025-288B",
        "meta_epoch": "2025-12-22T22:00:03.000096",
        "meta_mean_motion": 15.75351978,
        "meta_eccentricity": 0.00015489,
        "meta_inclination": 43.0008,
        "meta_ra_of_asc_node": 104.9426,
        "meta_arg_of_pericenter": 279.8661,
        "meta_mean_anomaly": 123.8395,
        "meta_ephemeris_type": 0,
        "meta_classification_type": "U",
        "meta_norad_cat_id": 66960,
        "meta_element_set_no": 999,
        "meta_rev_at_epoch": 346,
        "meta_bstar": -0.013198244,
        "meta_mean_motion_dot": -0.01802102,
        "meta_mean_motion_ddot": 0,
        "tle_line1": "1 66960U 25288B   25356.91670139 -.01802102  00000+0 -13198-1 0  9997",
        "tle_line2": "2 66960  43.0008 104.9426 0001548 279.8661 123.8395 15.75351978  3462"
      },
      "geometry": {
        "type": "Point",
        "coordinates": [
          9.914331594140215,
          -42.933941603981616
        ]
      }
    }
  ]
}